IRIDIUM 7 [-]           
1 24793U 97020B   24044.91293870  .00001046  00000+0  36030-3 0  9991
2 24793  86.3972  21.8433 0001959  82.9156 277.2263 14.35077058401709
IRIDIUM 5 [-]           
1 24795U 97020D   24044.72257240  .00007680  00000+0  75002-3 0  9995
2 24795  86.3936 307.7674 0127687  84.1207 277.4555 14.86227780412570
IRIDIUM 4 [-]           
1 24796U 97020E   24044.92971474  .00001025  00000+0  34641-3 0  9991
2 24796  86.3972  19.0401 0002228  82.6533 277.4916 14.35988634402239
IRIDIUM 914 [-]         
1 24836U 97030A   24044.94465439  .00001293  00000+0  40610-3 0  9998
2 24836  86.3934  29.0667 0003629  62.7594 297.3975 14.39823689536707
IRIDIUM 16 [-]          
1 24841U 97030F   24044.94706824  .00001126  00000+0  36836-3 0  9990
2 24841  86.3998  50.7279 0001370 155.5960 204.5303 14.37710651396680
IRIDIUM 911 [-]         
1 24842U 97030G   24044.92145425  .00001498  00000+0  41255-3 0  9996
2 24842  86.4426  49.9698 0012203 291.8953  68.0952 14.46293062404333
IRIDIUM 17 [-]          
1 24870U 97034B   24044.83763377  .00000904  00000+0  29989-3 0  9994
2 24870  86.3909  80.4282 0002924 126.1499 233.9969 14.36804793393293
IRIDIUM 920 [-]         
1 24871U 97034C   24044.95894201  .00001051  00000+0  32414-3 0  9990
2 24871  86.3929  60.7295 0009435 252.1293 107.8877 14.40527990396125
